NOAA 15                 
1 25338U 98030A   22317.50539289  .00000168  00000+0  88426-4 0  9993
2 25338  98.6308 345.0031 0009726 218.2867 141.7624 14.26195728274262
NOAA 18                 
1 28654U 05018A   22317.49941705  .00000186  00000+0  12419-3 0  9997
2 28654  98.9351  27.7141 0013280 269.8042  90.1608 14.12806376901023
NOAA 19                 
1 33591U 09005A   22317.44695685  .00000176  00000+0  12001-3 0  9997
2 33591  99.1318 354.6056 0014677 127.6847 232.5657 14.12637125709483
METOP-B                 
1 38771U 12049A   22317.43399472  .00000131  00000+0  79879-4 0  9996
2 38771  98.7112  15.0679 0000683  58.3464  35.8650 14.21493379526891
SARAL                   
1 39086U 13009A   22317.49260508  .00000095  00000+0  51684-4 0  9999
2 39086  98.5465 140.9448 0001264 137.3857 222.7424 14.32046046507816
METOP-C                 
1 43689U 18087A   22317.45225284  .00000128  00000+0  78700-4 0  9997
2 43689  98.7158  15.1128 0002622 344.5046  15.6050 14.21486969208474
ANGELS                  
1 44876U 19092D   22317.47975741  .00003644  00000+0  17834-3 0  9991
2 44876  97.4746 139.1110 0011353 192.6547 167.4404 15.18775461160852
GAZELLE                 
1 54023U 22127A   22317.59843241 -.00000043  00000+0  00000+0 0  9995
2 54023  98.3151 316.0049 0013054 182.0653 178.0491 14.41653477  5315
